EUTELSAT 8 WEST B       
1 40875U 15039B   25340.42502304 -.00000058  00000+0  00000+0 0  9998
2 40875   0.0646 353.9756 0004120 263.3818 323.1281  1.00271555 37723
EUTELSAT 9B             
1 41310U 16005A   25340.49973017  .00000069  00000+0  00000+0 0  9998
2 41310   0.0740  75.8204 0005016 191.5718 357.0441  1.00272389 36186
EUTELSAT 65 WEST A      
1 41382U 16014A   25340.46744772 -.00000269  00000+0  00000+0 0  9991
2 41382   0.0495 354.8279 0002875 269.5938 274.1570  1.00269627 35603
EUTELSAT 117 WEST B     
1 41589U 16038B   25340.47485668 -.00000005  00000+0  00000+0 0  9991
2 41589   0.0132 172.9606 0000179 270.2421  46.2587  1.00272504 34731
EUTELSAT 172B           
1 42741U 17029B   25340.60738929  .00000001  00000+0  00000+0 0  9994
2 42741   0.0108  86.2078 0000236 221.3143 158.7869  1.00270128 31804
EUTELSAT 7C             
1 44334U 19034B   25340.14271255  .00000056  00000+0  00000+0 0  9995
2 44334   0.0751 179.1623 0003450  60.5290 253.8532  1.00270039  4909
EUTELSAT 5 WEST B       
1 44624U 19067A   25340.35438926 -.00000035  00000+0  00000+0 0  9994
2 44624   0.0672 334.8834 0003589 281.2094 301.8866  1.00270407 22503
EUTELSAT KONNECT        
1 45027U 20005B   25339.92881795  .00000058  00000+0  00000+0 0  9997
2 45027   0.0712  98.3329 0001855 187.6480 130.5550  1.00267987 22381
